TDRS 11                 
1 39070U 13004A   26142.25921067  .00000071  00000+0  00000+0 0  9990
2 39070   3.4832  30.8182 0005253  14.8559 113.1149  1.00273619 46436
AMAZONAS 3              
1 39078U 13006A   26142.22450498 -.00000290  00000+0  00000+0 0  9996
2 39078   0.0339 148.5913 0000976 278.3180 192.7851  1.00271400 44653
AZERSPACE 1             
1 39079U 13006B   26142.24197169  .00000125  00000+0  00000+0 0  9998
2 39079   0.0399  85.9000 0000909 346.2966 300.7735  1.00270722 48544
SBIRS GEO-2 (USA 241)   
1 39120U 13011A   26142.15174001 -.00000294  00000+0  00000+0 0  9999
2 39120   4.4344  52.4843 0002219   2.1725 189.9580  1.00271690 48270
EUTELSAT 117 WEST A     
1 39122U 13012A   26142.20429333 -.00000021  00000+0  00000+0 0  9997
2 39122   0.0147 329.3125 0002527  86.0181 141.2440  1.00271046 48173
ANIK G1                 
1 39127U 13014A   26142.21163536 -.00000082  00000+0  00000+0 0  9992
2 39127   0.0131 290.7280 0001762 108.4020 169.5939  1.00270324 47998
ZHONGXING-11            
1 39157U 13020A   26142.14538903 -.00000297  00000+0  00000+0 0  9996
2 39157   0.0206 303.3759 0001969 122.4989 324.1019  1.00266497 47630
EUTELSAT 7B             
1 39163U 13022A   26142.23425831  .00000040  00000+0  00000+0 0  9995
2 39163   0.0719  12.0922 0005396  16.3198 302.7834  1.00270207 47689
WGS F5 (USA 243)        
1 39168U 13024A   26142.15113334 -.00000293  00000+0  00000+0 0  9996
2 39168   0.0195 287.8224 0000337 345.5217 328.3319  1.00269308 46915
SES-6                   
1 39172U 13026A   26142.22481160 -.00000269  00000+0  00000+0 0  9999
2 39172   0.0204   0.6397 0002739  53.7530 225.8936  1.00271517 47469
IRNSS-1A                
1 39199U 13034A   26141.86086669  .00000058  00000+0  00000+0 0  9996
2 39199  35.6618  64.2475 0016641 185.5062 354.8145  1.00279967 47108
MUOS-2                  
1 39206U 13036A   26142.05302450 -.00000019  00000+0  00000+0 0  9996
2 39206   4.9441  45.4896 0050619 178.9976 206.3383  1.00275336 46932
ALPHASAT                
1 39215U 13038A   26142.23781167  .00000125  00000+0  00000+0 0  9991
2 39215   2.9968   1.5969 0001985  69.8133 278.9140  1.00273676 43751
INSAT-3D                
1 39216U 13038B   26142.25852509 -.00000347  00000+0  00000+0 0  9990
2 39216   1.8612  82.8486 0001084 307.1278  72.4924  1.00269969 46828
WGS F6 (USA 244)        
1 39222U 13041A   26142.13276749  .00000081  00000+0  00000+0 0  9998
2 39222   0.0161 331.7484 0000175 338.7610 201.8607  1.00272010 45803
ES'HAIL 1               
1 39233U 13044A   26142.23789833  .00000135  00000+0  00000+0 0  9997
2 39233   0.0507 358.8107 0002531  51.7189 300.4808  1.00269416 46369
GSAT-7                  
1 39234U 13044B   26142.10498481 -.00000085  00000+0  00000+0 0  9995
2 39234   0.0842  93.5900 0003706 203.0355  54.9223  1.00270999 44995
