[{"OBJECT_NAME":"TDRS 11","OBJECT_ID":"2013-004A","EPOCH":"2026-05-22T06:13:15.801888","MEAN_MOTION":1.00273619,"ECCENTRICITY":0.00052534,"INCLINATION":3.4832,"RA_OF_ASC_NODE":30.8182,"ARG_OF_PERICENTER":14.8559,"MEAN_ANOMALY":113.1149,"EPHEMERIS_TYPE":0,"CLASSIFICATION_TYPE":"U","NORAD_CAT_ID":39070,"ELEMENT_SET_NO":999,"REV_AT_EPOCH":4643,"BSTAR":0,"MEAN_MOTION_DOT":7.1e-07,"MEAN_MOTION_DDOT":0},{"OBJECT_NAME":"AMAZONAS 3","OBJECT_ID":"2013-006A","EPOCH":"2026-05-22T05:23:17.230272","MEAN_MOTION":1.002714,"ECCENTRICITY":9.768e-05,"INCLINATION":0.0339,"RA_OF_ASC_NODE":148.5913,"ARG_OF_PERICENTER":278.318,"MEAN_ANOMALY":192.7851,"EPHEMERIS_TYPE":0,"CLASSIFICATION_TYPE":"U","NORAD_CAT_ID":39078,"ELEMENT_SET_NO":999,"REV_AT_EPOCH":4465,"BSTAR":0,"MEAN_MOTION_DOT":-2.9e-06,"MEAN_MOTION_DDOT":0},{"OBJECT_NAME":"AZERSPACE 1","OBJECT_ID":"2013-006B","EPOCH":"2026-05-22T05:48:26.354016","MEAN_MOTION":1.00270722,"ECCENTRICITY":9.092e-05,"INCLINATION":0.0399,"RA_OF_ASC_NODE":85.9,"ARG_OF_PERICENTER":346.2966,"MEAN_ANOMALY":300.7735,"EPHEMERIS_TYPE":0,"CLASSIFICATION_TYPE":"U","NORAD_CAT_ID":39079,"ELEMENT_SET_NO":999,"REV_AT_EPOCH":4854,"BSTAR":0,"MEAN_MOTION_DOT":1.25e-06,"MEAN_MOTION_DDOT":0},{"OBJECT_NAME":"SBIRS GEO-2 (USA 241)","OBJECT_ID":"2013-011A","EPOCH":"2026-05-22T03:38:30.336864","MEAN_MOTION":1.0027169,"ECCENTRICITY":0.00022191,"INCLINATION":4.4344,"RA_OF_ASC_NODE":52.4843,"ARG_OF_PERICENTER":2.1725,"MEAN_ANOMALY":189.958,"EPHEMERIS_TYPE":0,"CLASSIFICATION_TYPE":"U","NORAD_CAT_ID":39120,"ELEMENT_SET_NO":999,"REV_AT_EPOCH":4827,"BSTAR":0,"MEAN_MOTION_DOT":-2.94e-06,"MEAN_MOTION_DDOT":0},{"OBJECT_NAME":"EUTELSAT 117 WEST A","OBJECT_ID":"2013-012A","EPOCH":"2026-05-22T04:54:10.943712","MEAN_MOTION":1.00271046,"ECCENTRICITY":0.00025272,"INCLINATION":0.0147,"RA_OF_ASC_NODE":329.3125,"ARG_OF_PERICENTER":86.0181,"MEAN_ANOMALY":141.244,"EPHEMERIS_TYPE":0,"CLASSIFICATION_TYPE":"U","NORAD_CAT_ID":39122,"ELEMENT_SET_NO":999,"REV_AT_EPOCH":4817,"BSTAR":0,"MEAN_MOTION_DOT":-2.1e-07,"MEAN_MOTION_DDOT":0},{"OBJECT_NAME":"ANIK G1","OBJECT_ID":"2013-014A","EPOCH":"2026-05-22T05:04:45.295104","MEAN_MOTION":1.00270324,"ECCENTRICITY":0.00017625,"INCLINATION":0.0131,"RA_OF_ASC_NODE":290.728,"ARG_OF_PERICENTER":108.402,"MEAN_ANOMALY":169.5939,"EPHEMERIS_TYPE":0,"CLASSIFICATION_TYPE":"U","NORAD_CAT_ID":39127,"ELEMENT_SET_NO":999,"REV_AT_EPOCH":4799,"BSTAR":0,"MEAN_MOTION_DOT":-8.2e-07,"MEAN_MOTION_DDOT":0},{"OBJECT_NAME":"ZHONGXING-11","OBJECT_ID":"2013-020A","EPOCH":"2026-05-22T03:29:21.612192","MEAN_MOTION":1.00266497,"ECCENTRICITY":0.00019691,"INCLINATION":0.0206,"RA_OF_ASC_NODE":303.3759,"ARG_OF_PERICENTER":122.4989,"MEAN_ANOMALY":324.1019,"EPHEMERIS_TYPE":0,"CLASSIFICATION_TYPE":"U","NORAD_CAT_ID":39157,"ELEMENT_SET_NO":999,"REV_AT_EPOCH":4763,"BSTAR":0,"MEAN_MOTION_DOT":-2.97e-06,"MEAN_MOTION_DDOT":0},{"OBJECT_NAME":"EUTELSAT 7B","OBJECT_ID":"2013-022A","EPOCH":"2026-05-22T05:37:19.917984","MEAN_MOTION":1.00270207,"ECCENTRICITY":0.00053968,"INCLINATION":0.0719,"RA_OF_ASC_NODE":12.0922,"ARG_OF_PERICENTER":16.3198,"MEAN_ANOMALY":302.7834,"EPHEMERIS_TYPE":0,"CLASSIFICATION_TYPE":"U","NORAD_CAT_ID":39163,"ELEMENT_SET_NO":999,"REV_AT_EPOCH":4768,"BSTAR":0,"MEAN_MOTION_DOT":4e-07,"MEAN_MOTION_DDOT":0},{"OBJECT_NAME":"WGS F5 (USA 243)","OBJECT_ID":"2013-024A","EPOCH":"2026-05-22T03:37:37.920576","MEAN_MOTION":1.00269308,"ECCENTRICITY":3.37e-05,"INCLINATION":0.0195,"RA_OF_ASC_NODE":287.8224,"ARG_OF_PERICENTER":345.5217,"MEAN_ANOMALY":328.3319,"EPHEMERIS_TYPE":0,"CLASSIFICATION_TYPE":"U","NORAD_CAT_ID":39168,"ELEMENT_SET_NO":999,"REV_AT_EPOCH":4691,"BSTAR":0,"MEAN_MOTION_DOT":-2.93e-06,"MEAN_MOTION_DDOT":0},{"OBJECT_NAME":"SES-6","OBJECT_ID":"2013-026A","EPOCH":"2026-05-22T05:23:43.722240","MEAN_MOTION":1.00271517,"ECCENTRICITY":0.00027399,"INCLINATION":0.0204,"RA_OF_ASC_NODE":0.6397,"ARG_OF_PERICENTER":53.753,"MEAN_ANOMALY":225.8936,"EPHEMERIS_TYPE":0,"CLASSIFICATION_TYPE":"U","NORAD_CAT_ID":39172,"ELEMENT_SET_NO":999,"REV_AT_EPOCH":4746,"BSTAR":0,"MEAN_MOTION_DOT":-2.69e-06,"MEAN_MOTION_DDOT":0},{"OBJECT_NAME":"IRNSS-1A","OBJECT_ID":"2013-034A","EPOCH":"2026-05-21T20:39:38.882016","MEAN_MOTION":1.00279967,"ECCENTRICITY":0.0016641,"INCLINATION":35.6618,"RA_OF_ASC_NODE":64.2475,"ARG_OF_PERICENTER":185.5062,"MEAN_ANOMALY":354.8145,"EPHEMERIS_TYPE":0,"CLASSIFICATION_TYPE":"U","NORAD_CAT_ID":39199,"ELEMENT_SET_NO":999,"REV_AT_EPOCH":4710,"BSTAR":0,"MEAN_MOTION_DOT":5.8e-07,"MEAN_MOTION_DDOT":0},{"OBJECT_NAME":"MUOS-2","OBJECT_ID":"2013-036A","EPOCH":"2026-05-22T01:16:21.316800","MEAN_MOTION":1.00275336,"ECCENTRICITY":0.0050619,"INCLINATION":4.9441,"RA_OF_ASC_NODE":45.4896,"ARG_OF_PERICENTER":178.9976,"MEAN_ANOMALY":206.3383,"EPHEMERIS_TYPE":0,"CLASSIFICATION_TYPE":"U","NORAD_CAT_ID":39206,"ELEMENT_SET_NO":999,"REV_AT_EPOCH":4693,"BSTAR":0,"MEAN_MOTION_DOT":-1.9e-07,"MEAN_MOTION_DDOT":0},{"OBJECT_NAME":"ALPHASAT","OBJECT_ID":"2013-038A","EPOCH":"2026-05-22T05:42:26.928288","MEAN_MOTION":1.00273676,"ECCENTRICITY":0.00019852,"INCLINATION":2.9968,"RA_OF_ASC_NODE":1.5969,"ARG_OF_PERICENTER":69.8133,"MEAN_ANOMALY":278.914,"EPHEMERIS_TYPE":0,"CLASSIFICATION_TYPE":"U","NORAD_CAT_ID":39215,"ELEMENT_SET_NO":999,"REV_AT_EPOCH":4375,"BSTAR":0,"MEAN_MOTION_DOT":1.25e-06,"MEAN_MOTION_DDOT":0},{"OBJECT_NAME":"INSAT-3D","OBJECT_ID":"2013-038B","EPOCH":"2026-05-22T06:12:16.567776","MEAN_MOTION":1.00269969,"ECCENTRICITY":0.00010843,"INCLINATION":1.8612,"RA_OF_ASC_NODE":82.8486,"ARG_OF_PERICENTER":307.1278,"MEAN_ANOMALY":72.4924,"EPHEMERIS_TYPE":0,"CLASSIFICATION_TYPE":"U","NORAD_CAT_ID":39216,"ELEMENT_SET_NO":999,"REV_AT_EPOCH":4682,"BSTAR":0,"MEAN_MOTION_DOT":-3.47e-06,"MEAN_MOTION_DDOT":0},{"OBJECT_NAME":"WGS F6 (USA 244)","OBJECT_ID":"2013-041A","EPOCH":"2026-05-22T03:11:11.111136","MEAN_MOTION":1.0027201,"ECCENTRICITY":1.754e-05,"INCLINATION":0.0161,"RA_OF_ASC_NODE":331.7484,"ARG_OF_PERICENTER":338.761,"MEAN_ANOMALY":201.8607,"EPHEMERIS_TYPE":0,"CLASSIFICATION_TYPE":"U","NORAD_CAT_ID":39222,"ELEMENT_SET_NO":999,"REV_AT_EPOCH":4580,"BSTAR":0,"MEAN_MOTION_DOT":8.1e-07,"MEAN_MOTION_DDOT":0},{"OBJECT_NAME":"ES'HAIL 1","OBJECT_ID":"2013-044A","EPOCH":"2026-05-22T05:42:34.415712","MEAN_MOTION":1.00269416,"ECCENTRICITY":0.00025319,"INCLINATION":0.0507,"RA_OF_ASC_NODE":358.8107,"ARG_OF_PERICENTER":51.7189,"MEAN_ANOMALY":300.4808,"EPHEMERIS_TYPE":0,"CLASSIFICATION_TYPE":"U","NORAD_CAT_ID":39233,"ELEMENT_SET_NO":999,"REV_AT_EPOCH":4636,"BSTAR":0,"MEAN_MOTION_DOT":1.35e-06,"MEAN_MOTION_DDOT":0},{"OBJECT_NAME":"GSAT-7","OBJECT_ID":"2013-044B","EPOCH":"2026-05-22T02:31:10.687584","MEAN_MOTION":1.00270999,"ECCENTRICITY":0.00037069,"INCLINATION":0.0842,"RA_OF_ASC_NODE":93.59,"ARG_OF_PERICENTER":203.0355,"MEAN_ANOMALY":54.9223,"EPHEMERIS_TYPE":0,"CLASSIFICATION_TYPE":"U","NORAD_CAT_ID":39234,"ELEMENT_SET_NO":999,"REV_AT_EPOCH":4499,"BSTAR":0,"MEAN_MOTION_DOT":-8.5e-07,"MEAN_MOTION_DDOT":0}]